{
 "generated_at": "2026-06-21T08:57:48Z",
 "sources": [
  {
   "name": "CelesTrak",
   "url": "https://celestrak.org/NORAD/elements/",
   "license": "frei verfügbar; Attribution. Ursprünglich USSPACECOM/Space-Track."
  },
  {
   "name": "GCAT (J. McDowell, planet4589.org)",
   "url": "https://planet4589.org/space/gcat/",
   "license": "CC-BY 4.0"
  }
 ],
 "satellites": [
  {
   "norad": 43013,
   "name": "NOAA 20 (JPSS-1)",
   "intl": "2017-073A",
   "group": "weather",
   "gcat": {
    "class": "C",
    "category": "MET",
    "owner": "GSFC/NOAA",
    "state": "US"
   },
   "omm": {
    "OBJECT_NAME": "NOAA 20 (JPSS-1)",
    "OBJECT_ID": "2017-073A",
    "EPOCH": "2026-06-20T09:13:56.345088",
    "MEAN_MOTION": 14.1951229,
    "ECCENTRICITY": 0.0000383,
    "INCLINATION": 98.7771,
    "RA_OF_ASC_NODE": 110.8189,
    "ARG_OF_PERICENTER": 117.6624,
    "MEAN_ANOMALY": 242.4591,
    "EPHEMERIS_TYPE": 0,
    "CLASSIFICATION_TYPE": "U",
    "NORAD_CAT_ID": 43013,
    "ELEMENT_SET_NO": 999,
    "REV_AT_EPOCH": 44492,
    "BSTAR": 0.000042637,
    "MEAN_MOTION_DOT": 4.6e-7,
    "MEAN_MOTION_DDOT": 0
   }
  },
  {
   "norad": 54234,
   "name": "NOAA 21 (JPSS-2)",
   "intl": "2022-150A",
   "group": "weather",
   "gcat": {
    "class": "C",
    "category": "MET",
    "owner": "GSFC/NOAA",
    "state": "US"
   },
   "omm": {
    "OBJECT_NAME": "NOAA 21 (JPSS-2)",
    "OBJECT_ID": "2022-150A",
    "EPOCH": "2026-06-20T10:01:08.949216",
    "MEAN_MOTION": 14.19565986,
    "ECCENTRICITY": 0.0001836,
    "INCLINATION": 98.7059,
    "RA_OF_ASC_NODE": 110.1525,
    "ARG_OF_PERICENTER": 147.2077,
    "MEAN_ANOMALY": 212.9214,
    "EPHEMERIS_TYPE": 0,
    "CLASSIFICATION_TYPE": "U",
    "NORAD_CAT_ID": 54234,
    "ELEMENT_SET_NO": 999,
    "REV_AT_EPOCH": 18700,
    "BSTAR": 0.00004159,
    "MEAN_MOTION_DOT": 4.4e-7,
    "MEAN_MOTION_DDOT": 0
   }
  },
  {
   "norad": 35931,
   "name": "OCEANSAT-2",
   "intl": "2009-051A",
   "group": "resource",
   "gcat": {
    "class": null,
    "category": null,
    "owner": null,
    "state": null
   },
   "omm": {
    "OBJECT_NAME": "OCEANSAT-2",
    "OBJECT_ID": "2009-051A",
    "EPOCH": "2026-06-21T04:51:57.872160",
    "MEAN_MOTION": 13.99663407,
    "ECCENTRICITY": 0.001554,
    "INCLINATION": 98.2323,
    "RA_OF_ASC_NODE": 158.6537,
    "ARG_OF_PERICENTER": 223.7798,
    "MEAN_ANOMALY": 136.2138,
    "EPHEMERIS_TYPE": 0,
    "CLASSIFICATION_TYPE": "U",
    "NORAD_CAT_ID": 35931,
    "ELEMENT_SET_NO": 999,
    "REV_AT_EPOCH": 87989,
    "BSTAR": -0.00010732,
    "MEAN_MOTION_DOT": -0.00000195,
    "MEAN_MOTION_DDOT": 0
   }
  },
  {
   "norad": 59065,
   "name": "PARS 1",
   "intl": "2024-039Q",
   "group": "resource",
   "gcat": {
    "class": "C",
    "category": "IMG",
    "owner": "IRSA",
    "state": "IR"
   },
   "omm": {
    "OBJECT_NAME": "PARS 1",
    "OBJECT_ID": "2024-039Q",
    "EPOCH": "2026-06-21T04:46:02.509824",
    "MEAN_MOTION": 15.45796245,
    "ECCENTRICITY": 0.0011527,
    "INCLINATION": 97.4828,
    "RA_OF_ASC_NODE": 153.2446,
    "ARG_OF_PERICENTER": 99.7581,
    "MEAN_ANOMALY": 260.497,
    "EPHEMERIS_TYPE": 0,
    "CLASSIFICATION_TYPE": "U",
    "NORAD_CAT_ID": 59065,
    "ELEMENT_SET_NO": 999,
    "REV_AT_EPOCH": 12926,
    "BSTAR": 0.00019486,
    "MEAN_MOTION_DOT": 0.00009369,
    "MEAN_MOTION_DDOT": 0
   }
  },
  {
   "norad": 41787,
   "name": "PATHFINDER 1",
   "intl": "2016-059E",
   "group": "resource",
   "gcat": {
    "class": null,
    "category": null,
    "owner": null,
    "state": null
   },
   "omm": {
    "OBJECT_NAME": "PATHFINDER 1",
    "OBJECT_ID": "2016-059E",
    "EPOCH": "2026-06-19T22:21:45.809280",
    "MEAN_MOTION": 14.67665593,
    "ECCENTRICITY": 0.00280076,
    "INCLINATION": 97.8166,
    "RA_OF_ASC_NODE": 170.0842,
    "ARG_OF_PERICENTER": 194.6747,
    "MEAN_ANOMALY": 165.3648,
    "EPHEMERIS_TYPE": 0,
    "CLASSIFICATION_TYPE": "U",
    "NORAD_CAT_ID": 41787,
    "ELEMENT_SET_NO": 999,
    "REV_AT_EPOCH": 52011,
    "BSTAR": 0.000078647849,
    "MEAN_MOTION_DOT": 0.00000403,
    "MEAN_MOTION_DDOT": 0
   }
  },
  {
   "norad": 38012,
   "name": "PLEIADES 1A",
   "intl": "2011-076F",
   "group": "resource",
   "gcat": {
    "class": null,
    "category": "IMG",
    "owner": "CNES/DGA",
    "state": "F"
   },
   "omm": {
    "OBJECT_NAME": "PLEIADES 1A",
    "OBJECT_ID": "2011-076F",
    "EPOCH": "2026-06-21T04:15:31.627296",
    "MEAN_MOTION": 14.58532491,
    "ECCENTRICITY": 0.0001711,
    "INCLINATION": 98.1971,
    "RA_OF_ASC_NODE": 247.2271,
    "ARG_OF_PERICENTER": 95.6916,
    "MEAN_ANOMALY": 348.7708,
    "EPHEMERIS_TYPE": 0,
    "CLASSIFICATION_TYPE": "U",
    "NORAD_CAT_ID": 38012,
    "ELEMENT_SET_NO": 999,
    "REV_AT_EPOCH": 77257,
    "BSTAR": 0.000020682,
    "MEAN_MOTION_DOT": 5e-7,
    "MEAN_MOTION_DDOT": 0
   }
  },
  {
   "norad": 39019,
   "name": "PLEIADES 1B",
   "intl": "2012-068A",
   "group": "resource",
   "gcat": {
    "class": null,
    "category": "IMG",
    "owner": "CNES",
    "state": "F"
   },
   "omm": {
    "OBJECT_NAME": "PLEIADES 1B",
    "OBJECT_ID": "2012-068A",
    "EPOCH": "2026-06-21T04:41:41.968896",
    "MEAN_MOTION": 14.5856237,
    "ECCENTRICITY": 0.000167,
    "INCLINATION": 98.1941,
    "RA_OF_ASC_NODE": 247.1924,
    "ARG_OF_PERICENTER": 91.6802,
    "MEAN_ANOMALY": 268.4588,
    "EPHEMERIS_TYPE": 0,
    "CLASSIFICATION_TYPE": "U",
    "NORAD_CAT_ID": 39019,
    "ELEMENT_SET_NO": 999,
    "REV_AT_EPOCH": 72143,
    "BSTAR": 0.000031999,
    "MEAN_MOTION_DOT": 0.00000103,
    "MEAN_MOTION_DDOT": 0
   }
  },
  {
   "norad": 48268,
   "name": "PLEIADES NEO 3",
   "intl": "2021-034A",
   "group": "resource",
   "gcat": {
    "class": null,
    "category": "IMG",
    "owner": "ADSTI",
    "state": "F"
   },
   "omm": {
    "OBJECT_NAME": "PLEIADES NEO 3",
    "OBJECT_ID": "2021-034A",
    "EPOCH": "2026-06-21T04:04:50.657664",
    "MEAN_MOTION": 14.81672808,
    "ECCENTRICITY": 0.0001361,
    "INCLINATION": 97.8926,
    "RA_OF_ASC_NODE": 246.8795,
    "ARG_OF_PERICENTER": 92.809,
    "MEAN_ANOMALY": 267.3278,
    "EPHEMERIS_TYPE": 0,
    "CLASSIFICATION_TYPE": "U",
    "NORAD_CAT_ID": 48268,
    "ELEMENT_SET_NO": 999,
    "REV_AT_EPOCH": 27824,
    "BSTAR": 0.0001349,
    "MEAN_MOTION_DOT": 0.0000101,
    "MEAN_MOTION_DDOT": 0
   }
  }
 ]
}
